OBJECT_NAME,OBJECT_ID,EPOCH,MEAN_MOTION,ECCENTRICITY,INCLINATION,RA_OF_ASC_NODE,ARG_OF_PERICENTER,MEAN_ANOMALY,EPHEMERIS_TYPE,CLASSIFICATION_TYPE,NORAD_CAT_ID,ELEMENT_SET_NO,REV_AT_EPOCH,BSTAR,MEAN_MOTION_DOT,MEAN_MOTION_DDOT
GAOFEN-3 03,2022-035A,2026-06-26T05:58:17.753376,14.42215801,.0001518,98.4064,185.6978,100.3609,259.7752,0,U,52200,999,22215,.12223E-4,-.3E-7,0
COSMOS 2554,2022-036A,2026-06-26T05:20:12.366240,13.96672433,.0005382,67.1463,206.7370,260.5483,99.4993,0,U,52202,999,21521,.42269E-4,-.17E-6,0
ZHONGXING-6D,2022-038A,2026-06-25T21:24:15.388128,1.00274198,.0000375,0.0159,49.8558,160.0164,150.1257,0,U,52255,999,1551,0,0,0
DAQI-1,2022-039A,2026-06-26T04:56:57.875424,14.57683366,.0002537,98.1478,115.8718,210.4188,149.6864,0,U,52257,999,22325,.13203E-3,.557E-5,0
STARLINK-3761,2022-041B,2026-06-25T16:23:51.307872,15.08837427,.0001174,53.1597,344.1218,87.7097,272.4029,0,U,52262,999,23066,.5037E-4,.514E-5,0
STARLINK-3786,2022-041C,2026-06-26T03:36:52.964928,15.08819898,.0001193,53.1607,342.0690,91.0650,269.0478,0,U,52263,999,23073,-.45315E-4,-.1009E-4,0
STARLINK-3795,2022-041D,2026-06-26T04:00:01.998720,15.25574028,.0001606,53.1606,341.3271,85.2225,28.6608,0,U,52264,999,568,.38917E-1,.1080688E-1,0
STARLINK-3740,2022-041E,2026-06-26T01:40:07.213152,15.11390739,.00018,53.1602,342.3916,135.3849,224.7288,0,U,52265,999,23072,.10064E-1,.175843E-2,0
STARLINK-3739,2022-041F,2026-06-26T04:38:55.713696,15.09635577,.0000432,53.2133,341.9320,65.3430,294.7607,0,U,52266,999,23074,.99011E-3,.15852E-3,0
STARLINK-3748,2022-041G,2026-06-26T04:44:26.389824,15.09602534,.0001424,53.1589,341.8549,118.7495,241.3640,0,U,52267,999,23074,.55046E-2,.90315E-3,0
STARLINK-3746,2022-041H,2026-06-26T04:07:05.697408,15.13301500,.0000906,53.1602,341.8105,127.4368,232.6708,0,U,52268,999,23074,.96233E-2,.177362E-2,0
STARLINK-3791,2022-041J,2026-06-26T04:40:27.086880,15.08837502,.0001259,53.1586,341.8731,87.5388,272.5748,0,U,52269,999,23074,.44922E-4,.427E-5,0
STARLINK-3804,2022-041K,2026-06-26T04:29:51.417888,15.08839976,.0001356,53.1610,341.9334,94.0170,266.0976,0,U,52270,999,23074,.51737E-4,.536E-5,0
STARLINK-3788,2022-041L,2026-06-26T04:35:09.319776,15.08837279,.0001427,53.1606,341.8874,92.2185,267.8970,0,U,52271,999,23074,.37247E-4,.305E-5,0
STARLINK-3781,2022-041M,2026-06-26T02:42:50.446368,15.12212516,.0001646,53.1596,342.2207,91.8197,268.2984,0,U,52272,999,23073,.12675E-1,.228326E-2,0
STARLINK-3782,2022-041N,2026-06-26T03:44:55.992768,15.08837283,.0001236,53.1598,332.4271,86.8569,273.2564,0,U,52273,999,23087,.41211E-4,.368E-5,0
STARLINK-3790,2022-041P,2026-06-26T04:11:30.807168,15.10161611,.0001305,53.1604,341.9428,104.0267,256.0870,0,U,52274,999,23074,.90169E-2,.151736E-2,0
STARLINK-3784,2022-041Q,2026-06-26T04:24:33.326784,15.08836834,.0001251,53.1608,341.9211,84.9461,275.1673,0,U,52275,999,23074,.20924E-4,.45E-6,0
STARLINK-3778,2022-041R,2026-06-26T04:08:40.111008,15.08830550,.0001352,53.1606,341.9698,85.5184,274.5962,0,U,52276,999,23074,.44627E-4,.422E-5,0
STARLINK-3780,2022-041T,2026-06-26T04:03:22.356000,15.08827804,.0001347,53.1626,341.9858,88.3175,271.7971,0,U,52278,999,23074,.67733E-6,-.277E-5,0
STARLINK-3764,2022-041V,2026-06-26T03:44:00.257856,15.10617232,.0000658,53.1600,342.0240,258.8151,101.2767,0,U,52280,999,23074,.10122E-1,.173048E-2,0
STARLINK-3779,2022-041W,2026-06-26T04:10:02.490816,15.08842757,.0001145,53.1617,341.9655,87.9657,272.1465,0,U,52281,999,23074,-.11475E-3,-.2114E-4,0
STARLINK-3783,2022-041X,2026-06-26T03:38:11.066208,15.08845546,.0000501,53.1577,332.0657,98.0804,262.0244,0,U,52282,999,23087,-.12071E-3,-.2208E-4,0
STARLINK-3789,2022-041Y,2026-06-26T03:58:04.490400,15.08827197,.0001734,53.1603,342.0019,80.7698,279.3489,0,U,52283,999,23074,-.2371E-5,-.326E-5,0
STARLINK-3561,2022-041Z,2026-06-26T03:27:35.711712,15.08831573,.0001053,53.1608,332.0985,86.5773,273.5339,0,U,52284,999,23087,.40093E-4,.35E-5,0
STARLINK-3802,2022-041AB,2026-06-25T20:55:27.564384,15.08828905,.0001045,53.1604,333.3223,83.2108,276.9002,0,U,52286,999,23083,.62238E-4,.703E-5,0
STARLINK-3822,2022-041AC,2026-06-26T03:42:10.046880,15.08833837,.0001029,53.1584,342.0515,71.9142,288.1962,0,U,52287,999,23074,-.42737E-5,-.356E-5,0
STARLINK-3776,2022-041AD,2026-06-25T16:03:59.800032,15.08833777,.0001236,53.1602,334.2330,85.6805,274.4328,0,U,52288,999,23080,.27281E-4,.146E-5,0
STARLINK-3751,2022-041AE,2026-06-26T03:32:53.386368,15.08834310,.0000962,53.1614,332.0820,88.2544,271.8558,0,U,52289,999,23087,.47193E-4,.463E-5,0
STARLINK-3772,2022-041AF,2026-06-25T20:35:37.896000,15.08834843,.0001222,53.1596,333.3826,91.0985,269.0146,0,U,52290,999,23083,.4382E-4,.409E-5,0
