GAOFEN-3 03             
1 52200U 22035A   26177.24881659 -.00000003  00000+0  12223-4 0  9994
2 52200  98.4064 185.6978 0001518 100.3609 259.7752 14.42215801222157
COSMOS 2554             
1 52202U 22036A   26177.22236535 -.00000017  00000+0  42269-4 0  9990
2 52202  67.1463 206.7370 0005382 260.5483  99.4993 13.96672433215219
ZHONGXING-6D            
1 52255U 22038A   26176.89184477  .00000000  00000+0  00000+0 0  9992
2 52255   0.0159  49.8558 0000375 160.0164 150.1257  1.00274198 15513
DAQI-1                  
1 52257U 22039A   26177.20622541  .00000557  00000+0  13203-3 0  9990
2 52257  98.1478 115.8718 0002537 210.4188 149.6864 14.57683366223253
STARLINK-3761           
1 52262U 22041B   26176.68323273  .00000514  00000+0  50370-4 0  9990
2 52262  53.1597 344.1218 0001174  87.7097 272.4029 15.08837427230661
STARLINK-3786           
1 52263U 22041C   26177.15061302 -.00001009  00000+0 -45315-4 0  9991
2 52263  53.1607 342.0690 0001193  91.0650 269.0478 15.08819898230739
STARLINK-3795           
1 52264U 22041D   26177.16668980  .01080688  00000+0  38917-1 0  9994
2 52264  53.1606 341.3271 0001606  85.2225  28.6608 15.25574028  5688
STARLINK-3740           
1 52265U 22041E   26177.06952793  .00175843  00000+0  10064-1 0  9992
2 52265  53.1602 342.3916 0001800 135.3849 224.7288 15.11390739230725
STARLINK-3739           
1 52266U 22041F   26177.19370039  .00015852  00000+0  99011-3 0  9998
2 52266  53.2133 341.9320 0000432  65.3430 294.7607 15.09635577230741
STARLINK-3748           
1 52267U 22041G   26177.19752766  .00090315  00000+0  55046-2 0  9996
2 52267  53.1589 341.8549 0001424 118.7495 241.3640 15.09602534230746
STARLINK-3746           
1 52268U 22041H   26177.17159372  .00177362  00000+0  96233-2 0  9990
2 52268  53.1602 341.8105 0000906 127.4368 232.6708 15.13301500230743
STARLINK-3791           
1 52269U 22041J   26177.19475795  .00000427  00000+0  44922-4 0  9990
2 52269  53.1586 341.8731 0001259  87.5388 272.5748 15.08837502230747
STARLINK-3804           
1 52270U 22041K   26177.18740067  .00000536  00000+0  51737-4 0  9991
2 52270  53.1610 341.9334 0001356  94.0170 266.0976 15.08839976230745
STARLINK-3788           
1 52271U 22041L   26177.19108009  .00000305  00000+0  37247-4 0  9991
2 52271  53.1606 341.8874 0001427  92.2185 267.8970 15.08837279230741
STARLINK-3781           
1 52272U 22041M   26177.11308387  .00228326  00000+0  12675-1 0  9995
2 52272  53.1596 342.2207 0001646  91.8197 268.2984 15.12212516230731
STARLINK-3782           
1 52273U 22041N   26177.15620362  .00000368  00000+0  41211-4 0  9995
2 52273  53.1598 332.4271 0001236  86.8569 273.2564 15.08837283230872
STARLINK-3790           
1 52274U 22041P   26177.17466212  .00151736  00000+0  90169-2 0  9990
2 52274  53.1604 341.9428 0001305 104.0267 256.0870 15.10161611230748
STARLINK-3784           
1 52275U 22041Q   26177.18371906  .00000045  00000+0  20924-4 0  9997
2 52275  53.1608 341.9211 0001251  84.9461 275.1673 15.08836834230741
STARLINK-3778           
1 52276U 22041R   26177.17268647  .00000422  00000+0  44627-4 0  9999
2 52276  53.1606 341.9698 0001352  85.5184 274.5962 15.08830550230743
STARLINK-3780           
1 52278U 22041T   26177.16900875 -.00000277  00000+0  67733-6 0  9990
2 52278  53.1626 341.9858 0001347  88.3175 271.7971 15.08827804230747
STARLINK-3764           
1 52280U 22041V   26177.15555854  .00173048  00000+0  10122-1 0  9996
2 52280  53.1600 342.0240 0000658 258.8151 101.2767 15.10617232230746
STARLINK-3779           
1 52281U 22041W   26177.17363994 -.00002114  00000+0 -11475-3 0  9992
2 52281  53.1617 341.9655 0001145  87.9657 272.1465 15.08842757230749
STARLINK-3783           
1 52282U 22041X   26177.15151697 -.00002208  00000+0 -12071-3 0  9993
2 52282  53.1577 332.0657 0000501  98.0804 262.0244 15.08845546230876
STARLINK-3789           
1 52283U 22041Y   26177.16532975 -.00000326  00000+0 -23710-5 0  9990
2 52283  53.1603 342.0019 0001734  80.7698 279.3489 15.08827197230748
STARLINK-3561           
1 52284U 22041Z   26177.14416333  .00000350  00000+0  40093-4 0  9995
2 52284  53.1608 332.0985 0001053  86.5773 273.5339 15.08831573230874
STARLINK-3802           
1 52286U 22041AB  26176.87184681  .00000703  00000+0  62238-4 0  9991
2 52286  53.1604 333.3223 0001045  83.2108 276.9002 15.08828905230833
STARLINK-3822           
1 52287U 22041AC  26177.15428295 -.00000356  00000+0 -42737-5 0  9995
2 52287  53.1584 342.0515 0001029  71.9142 288.1962 15.08833837230746
STARLINK-3776           
1 52288U 22041AD  26176.66944213  .00000146  00000+0  27281-4 0  9995
2 52288  53.1602 334.2330 0001236  85.6805 274.4328 15.08833777230808
STARLINK-3751           
1 52289U 22041AE  26177.14784012  .00000463  00000+0  47193-4 0  9995
2 52289  53.1614 332.0820 0000962  88.2544 271.8558 15.08834310230873
STARLINK-3772           
1 52290U 22041AF  26176.85807750  .00000409  00000+0  43820-4 0  9992
2 52290  53.1596 333.3826 0001222  91.0985 269.0146 15.08834843230834
